NORAD_CAT_ID,OBJECT_NAME,OBJECT_TYPE,EPOCH,MEAN_MOTION,ECCENTRICITY,INCLINATION,RA_OF_ASC_NODE,ARG_OF_PERICENTER,MEAN_ANOMALY,BSTAR,MEAN_MOTION_DOT,MEAN_MOTION_DDOT,TLE_LINE0,TLE_LINE1,TLE_LINE2,SEMIMAJOR_AXIS,PERIOD,APOGEE,PERIGEE,DECAYED
53594.0,STARLINK-4681,PAYLOAD,2023-06-07 03:52:22,15.0883766,0.0001253,53.2169,82.5733,86.5997,273.5138,5.504e-05,5.88e-06,0.0,0 STARLINK-4681,1 53594U 22104G   23158.16137564  .00000588  00000-0  55040-4 0  9996,2 53594  53.2169  82.5733 0001253  86.5997 273.5138 15.08837660 44132,6917.888,95.438,540.619,538.886,0.0
53594.0,STARLINK-4681,PAYLOAD,2023-06-08 02:07:47,15.08838485,0.0001224,53.2171,78.4096,88.9721,271.1411,1.9165e-05,1.7e-07,0.0,0 STARLINK-4681,1 53594U 22104G   23159.08873965  .00000017  00000-0  19165-4 0  9995,2 53594  53.2171  78.4096 0001224  88.9721 271.1411 15.08838485 44279,6917.885,95.438,540.597,538.903,0.0
53594.0,STARLINK-4681,PAYLOAD,2023-06-08 22:47:47,15.0883964,0.0001258,53.217,74.5437,90.2009,269.9127,0.00011436,1.533e-05,0.0,0 STARLINK-4681,1 53594U 22104G   23159.94985754  .00001533  00000-0  11436-3 0  9996,2 53594  53.2170  74.5437 0001258  90.2009 269.9127 15.08839640 43245,6917.881,95.438,540.617,538.876,0.0
53594.0,STARLINK-4681,PAYLOAD,2023-06-09 03:33:56,15.08847093,0.0001246,53.2169,73.651,90.1178,269.9957,0.00012297,1.67e-05,0.0,0 STARLINK-4681,1 53594U 22104G   23160.14857241  .00001670  00000-0  12297-3 0  9997,2 53594  53.2169  73.6510 0001246  90.1178 269.9957 15.08847093 43273,6917.859,95.437,540.586,538.862,0.0
53594.0,STARLINK-4681,PAYLOAD,2023-06-09 11:30:52,15.08844573,0.0001266,53.2174,72.1621,93.3687,266.745,-1.4719e-05,-5.22e-06,0.0,0 STARLINK-4681,1 53594U 22104G   23160.47977674 -.00000522  00000-0 -14719-4 0  9995,2 53594  53.2174  72.1621 0001266  93.3687 266.7450 15.08844573 44485,6917.866,95.437,540.607,538.856,0.0
53594.0,STARLINK-4681,PAYLOAD,2023-06-10 03:24:44,15.08818099,0.0001411,53.2168,69.1886,97.0325,263.0828,0.00037052,5.61e-05,0.0,0 STARLINK-4681,1 53594U 22104G   23161.14218338  .00005610  00000-0  37052-3 0  9990,2 53594  53.2168  69.1886 0001411  97.0325 263.0828 15.08818099 43425,6917.947,95.439,540.788,538.836,0.0
53594.0,STARLINK-4681,PAYLOAD,2023-06-10 11:21:39,15.08841694,0.000143,53.2162,67.704,71.614,288.5007,8.8346e-05,1.118e-05,0.0,0 STARLINK-4681,1 53594U 22104G   23161.47337819  .00001118  00000-0  88346-4 0  9994,2 53594  53.2162  67.7040 0001430  71.6140 288.5007 15.08841694 44631,6917.875,95.437,540.729,538.751,0.0
53594.0,STARLINK-4681,PAYLOAD,2023-06-11 00:04:44,15.08844646,0.0001452,53.2183,65.3218,99.4115,260.7041,-3.8129e-06,-3.49e-06,0.0,0 STARLINK-4681,1 53594U 22104G   23162.00329758 -.00000349  00000-0 -38129-5 0  9999,2 53594  53.2183  65.3218 0001452  99.4115 260.7041 15.08844646 44718,6917.866,95.437,540.736,538.727,0.0
53594.0,STARLINK-4681,PAYLOAD,2023-06-11 17:33:59,15.08836483,0.0001378,53.218,62.0534,97.4393,262.6756,4.1788e-05,3.77e-06,0.0,0 STARLINK-4681,1 53594U 22104G   23162.73194164  .00000377  00000-0  41788-4 0  9993,2 53594  53.2180  62.0534 0001378  97.4393 262.6756 15.08836483 43660,6917.891,95.438,540.709,538.803,0.0
53594.0,STARLINK-4681,PAYLOAD,2023-06-11 23:55:32,15.08837631,0.0001429,53.2182,60.8653,94.2565,265.859,2.8713e-05,1.69e-06,0.0,0 STARLINK-4681,1 53594U 22104G   23162.99690192  .00000169  00000-0  28713-4 0  9995,2 53594  53.2182  60.8653 0001429  94.2565 265.8590 15.08837631 44863,6917.888,95.438,540.741,538.764,0.0
53594.0,STARLINK-4681,PAYLOAD,2023-06-13 02:57:05,15.08842602,0.0001358,53.2168,55.8095,99.7368,260.3777,-9.643e-06,-4.41e-06,0.0,0 STARLINK-4681,1 53594U 22104G   23164.12298003 -.00000441  00000-0 -96430-5 0  9994,2 53594  53.2168  55.8095 0001358  99.7368 260.3777 15.08842602 43874,6917.872,95.437,540.677,538.798,0.0
53594.0,STARLINK-4681,PAYLOAD,2023-06-13 18:50:57,15.08834806,0.0001248,53.2179,52.8356,88.8872,271.2263,-2.59e-06,-3.29e-06,0.0,0 STARLINK-4681,1 53594U 22104G   23164.78538661 -.00000329  00000-0 -25900-5 0  9992,2 53594  53.2179  52.8356 0001248  88.8872 271.2263 15.08834806 45139,6917.896,95.438,540.625,538.898,0.0
53594.0,STARLINK-4681,PAYLOAD,2023-06-13 23:37:06,15.08837124,0.0001004,53.218,51.9463,98.6841,261.4265,1.9154e-05,1.7e-07,0.0,0 STARLINK-4681,1 53594U 22104G   23164.98410362  .00000017  00000-0  19154-4 0  9996,2 53594  53.2180  51.9463 0001004  98.6841 261.4265 15.08837124 44009,6917.889,95.438,540.449,539.06,0.0
53594.0,STARLINK-4681,PAYLOAD,2023-06-14 02:47:52,15.08844769,0.0001191,53.2174,51.3493,92.9362,267.1767,7.5299e-05,9.11e-06,0.0,0 STARLINK-4681,1 53594U 22104G   23165.11657753  .00000911  00000-0  75299-4 0  9994,2 53594  53.2174  51.3493 0001191  92.9362 267.1767 15.08844769 44026,6917.866,95.437,540.555,538.907,0.0
53594.0,STARLINK-4681,PAYLOAD,2023-06-14 17:06:21,15.08835125,0.0001105,53.2171,48.6736,94.5695,265.5424,-2.8568e-05,-7.42e-06,0.0,0 STARLINK-4681,1 53594U 22104G   23165.71274873 -.00000742  00000-0 -28568-4 0  9999,2 53594  53.2171  48.6736 0001105  94.5695 265.5424 15.08835125 44112,6917.895,95.438,540.525,538.996,0.0
53594.0,STARLINK-4681,PAYLOAD,2023-06-15 01:03:17,15.08837766,0.0001105,53.2171,47.1867,92.3349,267.777,-1.0781e-05,-4.59e-06,0.0,0 STARLINK-4681,1 53594U 22104G   23166.04394718 -.00000459  00000-0 -10781-4 0  9990,2 53594  53.2171  47.1867 0001105  92.3349 267.7770 15.08837766 45328,6917.887,95.438,540.517,538.988,0.0
53594.0,STARLINK-4681,PAYLOAD,2023-06-15 15:21:45,15.08835312,0.000114,53.2177,44.5101,95.1925,264.9197,5.7455e-05,6.27e-06,0.0,0 STARLINK-4681,1 53594U 22104G   23166.64010811  .00000627  00000-0  57455-4 0  9999,2 53594  53.2177  44.5101 0001140  95.1925 264.9197 15.08835312 45413,6917.895,95.438,540.548,538.971,0.0
53594.0,STARLINK-4681,PAYLOAD,2023-06-15 23:18:40,15.08847567,0.0001131,53.2176,43.0236,94.8749,265.2372,6.7811e-05,7.92e-06,0.0,0 STARLINK-4681,1 53594U 22104G   23166.97130050  .00000792  00000-0  67811-4 0  9993,2 53594  53.2176  43.0236 0001131  94.8749 265.2372 15.08847567 44306,6917.857,95.437,540.505,538.94,0.0
53594.0,STARLINK-4681,PAYLOAD,2023-06-16 08:50:59,15.08846523,0.0001136,53.2174,41.2392,86.0155,274.0967,3.3702e-05,2.49e-06,0.0,0 STARLINK-4681,1 53594U 22104G   23167.36874115  .00000249  00000-0  33702-4 0  9993,2 53594  53.2174  41.2392 0001136  86.0155 274.0967 15.08846523 45520,6917.86,95.437,540.511,538.94,0.0
53594.0,STARLINK-4681,PAYLOAD,2023-06-17 08:41:46,15.08848174,0.0001121,53.2168,36.7805,82.3826,277.7293,-7.1635e-05,-1.428e-05,0.0,0 STARLINK-4681,1 53594U 22104G   23168.36234098 -.00001428  00000-0 -71635-4 0  9993,2 53594  53.2168  36.7805 0001121  82.3826 277.7293 15.08848174 44513,6917.855,95.437,540.496,538.945,0.0
53594.0,STARLINK-4681,PAYLOAD,2023-06-17 15:03:20,15.08829447,0.00011,53.2171,35.5884,98.5838,261.5279,-0.00010698,-1.989e-05,0.0,0 STARLINK-4681,1 53594U 22104G   23168.62731622 -.00001989  00000-0 -10698-3 0  9990,2 53594  53.2171  35.5884 0001100  98.5838 261.5279 15.08829447 44551,6917.913,95.438,540.539,539.017,0.0
53594.0,STARLINK-4681,PAYLOAD,2023-06-17 21:24:52,15.08832317,0.0001098,53.2175,34.3986,102.9668,257.1447,-7.4784e-05,-1.478e-05,0.0,0 STARLINK-4681,1 53594U 22104G   23168.89227445 -.00001478  00000-0 -74784-4 0  9992,2 53594  53.2175  34.3986 0001098 102.9668 257.1447 15.08832317 45753,6917.904,95.438,540.528,539.009,0.0
53594.0,STARLINK-4681,PAYLOAD,2023-06-18 08:32:34,15.08838773,0.0001117,53.2181,32.3172,94.9502,265.1618,2.4606e-06,-2.49e-06,0.0,0 STARLINK-4681,1 53594U 22104G   23169.35594982 -.00000249  00000-0  24606-5 0  9990,2 53594  53.2181  32.3172 0001117  94.9502 265.1618 15.08838773 44664,6917.884,95.438,540.522,538.976,0.0
53594.0,STARLINK-4681,PAYLOAD,2023-06-18 21:15:38,15.08846868,9.27e-05,53.2179,29.938,96.2696,263.8401,8.9735e-05,1.141e-05,0.0,0 STARLINK-4681,1 53594U 22104G   23169.88586118  .00001141  00000-0  89735-4 0  9994,2 53594  53.2179  29.9380 0000927  96.2696 263.8401 15.08846868 45908,6917.859,95.437,540.366,539.083,0.0
53594.0,STARLINK-4681,PAYLOAD,2023-06-19 00:26:24,15.08855688,0.0001046,53.2178,29.3434,94.1162,265.995,4.332e-05,4.02e-06,0.0,0 STARLINK-4681,1 53594U 22104G   23170.01833703  .00000402  00000-0  43320-4 0  9995,2 53594  53.2178  29.3434 0001046  94.1162 265.9950 15.08855688 44764,6917.832,95.437,540.421,538.974,0.0
53594.0,STARLINK-4681,PAYLOAD,2023-06-19 21:06:26,15.08836942,0.000148,53.218,25.478,95.1883,264.9278,0.00021084,3.069e-05,0.0,0 STARLINK-4681,1 53594U 22104G   23170.87946861  .00003069  00000-0  21084-3 0  9993,2 53594  53.2180  25.4780 0001480  95.1883 264.9278 15.08836942 46059,6917.89,95.438,540.779,538.731,0.0
53594.0,STARLINK-4681,PAYLOAD,2023-06-19 22:41:49,15.08836864,0.0001051,53.2179,25.181,90.8293,269.282,0.00017874,2.558e-05,0.0,0 STARLINK-4681,1 53594U 22104G   23170.94571020  .00002558  00000-0  17874-3 0  9996,2 53594  53.2179  25.1810 0001051  90.8293 269.2820 15.08836864 44905,6917.89,95.438,540.482,539.028,0.0
53594.0,STARLINK-4681,PAYLOAD,2023-06-20 20:57:13,15.08844824,0.0001073,53.217,21.0181,88.5536,271.5579,2.2325e-05,6.8e-07,0.0,0 STARLINK-4681,1 53594U 22104G   23171.87306713  .00000068  00000-0  22325-4 0  9996,2 53594  53.2170  21.0181 0001073  88.5536 271.5579 15.08844824 46207,6917.866,95.437,540.473,538.988,0.0
53594.0,STARLINK-4681,PAYLOAD,2023-06-21 17:37:14,15.08825132,0.0001123,53.2178,17.1533,107.144,252.9675,0.00021389,3.117e-05,0.0,0 STARLINK-4681,1 53594U 22104G   23172.73419714  .00003117  00000-0  21389-3 0  9994,2 53594  53.2178  17.1533 0001123 107.1440 252.9675 15.08825132 45176,6917.926,95.438,540.568,539.014,0.0
53594.0,STARLINK-4681,PAYLOAD,2023-06-21 20:48:00,15.08837215,0.0001045,53.2176,16.559,105.2736,254.8372,9.4251e-05,1.212e-05,0.0,0 STARLINK-4681,1 53594U 22104G   23172.86667365  .00001212  00000-0  94251-4 0  9998,2 53594  53.2176  16.5590 0001045 105.2736 254.8372 15.08837215 45192,6917.889,95.438,540.477,539.031,0.0
